start=new Date('2022-03-04T00:00:00.000Z').valueOf();
sats=[{"MEAN_ELEMENT_THEORY":"SGP4","REV_AT_EPOCH":"4268","INCLINATION":"53.0539","MEAN_MOTION_DDOT":"0.0000000000000","APOAPSIS":"548.318","TLE_LINE1":"1 48640U 21044C   22062.81350513  .00000536  00000-0  54858-4 0  9999","DECAY_DATE":null,"LAUNCH_DATE":"2021-05-26","REF_FRAME":"TEME","COUNTRY_CODE":"US","MEAN_ANOMALY":"281.8216","OBJECT_TYPE":"PAYLOAD","RCS_SIZE":"LARGE","CLASSIFICATION_TYPE":"U","EPHEMERIS_TYPE":"0","TIME_SYSTEM":"UTC","RA_OF_ASC_NODE":"221.6853","ELEMENT_SET_NO":"999","EPOCH":"2022-03-03T19:31:26.843232","NORAD_CAT_ID":"48640","PERIOD":"95.593","CENTER_NAME":"EARTH","ARG_OF_PERICENTER":"78.2947","SEMIMAJOR_AXIS":"6925.374","OBJECT_ID":"2021-044C","PERIAPSIS":"546.161","SITE":"AFETR","GP_ID":"197769188","TLE_LINE2":"2 48640  53.0539 221.6853 0001557  78.2947 281.8216 15.06391542 42685","MEAN_MOTION":"15.06391542","BSTAR":"0.00005485800000","FILE":"3343255","OBJECT_NAME":"STARLINK-2736","ECCENTRICITY":"0.00015570","MEAN_MOTION_DOT":"0.00000536"},{"SEMIMAJOR_AXIS":"6925.339","ARG_OF_PERICENTER":"80.3126","OBJECT_ID":"2021-044D","PERIAPSIS":"546.226","SITE":"AFETR","GP_ID":"197769438","TLE_LINE2":"2 48641  53.0551 226.5105 0001412  80.3126 279.8023 15.06403247 42620","MEAN_MOTION":"15.06403247","FILE":"3343255","BSTAR":"0.00005304900000","OBJECT_NAME":"STARLINK-2754","MEAN_MOTION_DOT":"0.00000509","ECCENTRICITY":"0.00014120","REV_AT_EPOCH":"4262","MEAN_ELEMENT_THEORY":"SGP4","MEAN_MOTION_DDOT":"0.0000000000000","INCLINATION":"53.0551","APOAPSIS":"548.181","MEAN_ANOMALY":"279.8023","DECAY_DATE":null,"TLE_LINE1":"1 48641U 21044D   22062.85269358  .00000509  00000-0  53049-4 0  9991","LAUNCH_DATE":"2021-05-26","REF_FRAME":"TEME","COUNTRY_CODE":"US","RCS_SIZE":"LARGE","OBJECT_TYPE":"PAYLOAD","CLASSIFICATION_TYPE":"U","EPHEMERIS_TYPE":"0","TIME_SYSTEM":"UTC","RA_OF_ASC_NODE":"226.5105","ELEMENT_SET_NO":"999","NORAD_CAT_ID":"48641","EPOCH":"2022-03-03T20:27:52.725312","PERIOD":"95.592","CENTER_NAME":"EARTH"},{"OBJECT_ID":"2021-044E","ARG_OF_PERICENTER":"78.8665","SEMIMAJOR_AXIS":"6925.368","TLE_LINE2":"2 48642  53.0565 226.4444 0001437  78.8665 281.2485 15.06393551 42623","GP_ID":"197769689","SITE":"AFETR","PERIAPSIS":"546.238","MEAN_MOTION":"15.06393551","FILE":"3343255","BSTAR":"0.00003784900000","MEAN_MOTION_DOT":"0.00000282","ECCENTRICITY":"0.00014370","OBJECT_NAME":"STARLINK-2646","MEAN_MOTION_DDOT":"0.0000000000000","INCLINATION":"53.0565","REV_AT_EPOCH":"4262","MEAN_ELEMENT_THEORY":"SGP4","MEAN_ANOMALY":"281.2485","TLE_LINE1":"1 48642U 21044E   22062.86648484  .00000282  00000-0  37849-4 0  9992","DECAY_DATE":null,"LAUNCH_DATE":"2021-05-26","COUNTRY_CODE":"US","REF_FRAME":"TEME","APOAPSIS":"548.228","RCS_SIZE":"LARGE","OBJECT_TYPE":"PAYLOAD","EPHEMERIS_TYPE":"0","CLASSIFICATION_TYPE":"U","TIME_SYSTEM":"UTC","ELEMENT_SET_NO":"999","RA_OF_ASC_NODE":"226.4444","NORAD_CAT_ID":"48642","EPOCH":"2022-03-03T20:47:44.290176","CENTER_NAME":"EARTH","PERIOD":"95.593"},{"TIME_SYSTEM":"UTC","RA_OF_ASC_NODE":"227.1123","ELEMENT_SET_NO":"999","NORAD_CAT_ID":"48643","EPOCH":"2022-03-03T17:11:28.519584","PERIOD":"95.592","CENTER_NAME":"EARTH","REV_AT_EPOCH":"4260","MEAN_ELEMENT_THEORY":"SGP4","MEAN_MOTION_DDOT":"0.0000000000000","INCLINATION":"53.0547","APOAPSIS":"548.077","MEAN_ANOMALY":"273.2808","REF_FRAME":"TEME","TLE_LINE1":"1 48643U 21044F   22062.71630231  .00001049  00000-0  89289-4 0  9995","DECAY_DATE":null,"LAUNCH_DATE":"2021-05-26","COUNTRY_CODE":"US","OBJECT_TYPE":"PAYLOAD","RCS_SIZE":"LARGE","CLASSIFICATION_TYPE":"U","EPHEMERIS_TYPE":"0","PERIAPSIS":"546.320","SITE":"AFETR","TLE_LINE2":"2 48643  53.0547 227.1123 0001269  86.8326 273.2808 15.06404944 42609","GP_ID":"197770440","MEAN_MOTION":"15.06404944","FILE":"3343255","BSTAR":"0.00008928900000","OBJECT_NAME":"STARLINK-2704","ECCENTRICITY":"0.00012690","MEAN_MOTION_DOT":"0.00001049","SEMIMAJOR_AXIS":"6925.333","ARG_OF_PERICENTER":"86.8326","OBJECT_ID":"2021-044F"},{"APOAPSIS":"548.276","REF_FRAME":"TEME","TLE_LINE1":"1 48644U 21044G   22062.84530987  .00001609  00000-0  12689-3 0  9998","DECAY_DATE":null,"LAUNCH_DATE":"2021-05-26","COUNTRY_CODE":"US","MEAN_ANOMALY":"290.7188","REV_AT_EPOCH":"4262","MEAN_ELEMENT_THEORY":"SGP4","INCLINATION":"53.0552","MEAN_MOTION_DDOT":"0.0000000000000","CLASSIFICATION_TYPE":"U","EPHEMERIS_TYPE":"0","OBJECT_TYPE":"PAYLOAD","RCS_SIZE":"LARGE","RA_OF_ASC_NODE":"226.5484","ELEMENT_SET_NO":"999","TIME_SYSTEM":"UTC","PERIOD":"95.592","CENTER_NAME":"EARTH","EPOCH":"2022-03-03T20:17:14.772768","NORAD_CAT_ID":"48644","SEMIMAJOR_AXIS":"6925.347","ARG_OF_PERICENTER":"69.3966","OBJECT_ID":"2021-044G","MEAN_MOTION":"15.06400378","SITE":"AFETR","PERIAPSIS":"546.149","GP_ID":"197768688","TLE_LINE2":"2 48644  53.0552 226.5484 0001536  69.3966 290.7188 15.06400378 42626","OBJECT_NAME":"STARLINK-2695","ECCENTRICITY":"0.00015360","MEAN_MOTION_DOT":"0.00001609","BSTAR":"0.00012689000000","FILE":"3343255"},{"RCS_SIZE":"LARGE","OBJECT_TYPE":"PAYLOAD","EPHEMERIS_TYPE":"0","CLASSIFICATION_TYPE":"U","INCLINATION":"53.0533","MEAN_MOTION_DDOT":"0.0000000000000","MEAN_ELEMENT_THEORY":"SGP4","REV_AT_EPOCH":"4262","TLE_LINE1":"1 48645U 21044H   22062.84163127  .00001600  00000-0  12624-3 0  9997","REF_FRAME":"TEME","DECAY_DATE":null,"LAUNCH_DATE":"2021-05-26","COUNTRY_CODE":"US","MEAN_ANOMALY":"287.7974","APOAPSIS":"548.271","EPOCH":"2022-03-03T20:11:56.941728","NORAD_CAT_ID":"48645","CENTER_NAME":"EARTH","PERIOD":"95.592","TIME_SYSTEM":"UTC","ELEMENT_SET_NO":"999","RA_OF_ASC_NODE":"226.5603","OBJECT_ID":"2021-044H","ARG_OF_PERICENTER":"72.3184","SEMIMAJOR_AXIS":"6925.334","BSTAR":"0.00012624000000","FILE":"3343255","MEAN_MOTION_DOT":"0.00001600","ECCENTRICITY":"0.00015480","OBJECT_NAME":"STARLINK-2733","GP_ID":"197768938","TLE_LINE2":"2 48645  53.0533 226.5603 0001548  72.3184 287.7974 15.06404804 42625","SITE":"AFETR","PERIAPSIS":"546.127","MEAN_MOTION":"15.06404804"},{"OBJECT_TYPE":"PAYLOAD","RCS_SIZE":"LARGE","EPHEMERIS_TYPE":"0","CLASSIFICATION_TYPE":"U","MEAN_MOTION_DDOT":"0.0000000000000","INCLINATION":"53.0546","REV_AT_EPOCH":"4262","MEAN_ELEMENT_THEORY":"SGP4","MEAN_ANOMALY":"264.0543","TLE_LINE1":"1 48646U 21044J   22062.83794889  .00000430  00000-0  47784-4 0  9998","COUNTRY_CODE":"US","DECAY_DATE":null,"LAUNCH_DATE":"2021-05-26","REF_FRAME":"TEME","APOAPSIS":"548.169","NORAD_CAT_ID":"48646","EPOCH":"2022-03-03T20:06:38.784096","CENTER_NAME":"EARTH","PERIOD":"95.593","TIME_SYSTEM":"UTC","ELEMENT_SET_NO":"999","RA_OF_ASC_NODE":"226.5596","OBJECT_ID":"2021-044J","SEMIMAJOR_AXIS":"6925.380","ARG_OF_PERICENTER":"96.0598","FILE":"3343255","BSTAR":"0.00004778400000","ECCENTRICITY":"0.00013350","MEAN_MOTION_DOT":"0.00000430","OBJECT_NAME":"STARLINK-2732","TLE_LINE2":"2 48646  53.0546 226.5596 0001335  96.0598 264.0543 15.06389838 42626","GP_ID":"197770190","SITE":"AFETR","PERIAPSIS":"546.320","MEAN_MOTION":"15.06389838"},{"CLASSIFICATION_TYPE":"U","EPHEMERIS_TYPE":"0","RCS_SIZE":"LARGE","OBJECT_TYPE":"PAYLOAD","APOAPSIS":"548.225","MEAN_ANOMALY":"284.0807","DECAY_DATE":null,"TLE_LINE1":"1 48647U 21044K   22062.76790961  .00001054  00000-0  89609-4 0  9993","LAUNCH_DATE":"2021-05-26","COUNTRY_CODE":"US","REF_FRAME":"TEME","REV_AT_EPOCH":"4261","MEAN_ELEMENT_THEORY":"SGP4","MEAN_MOTION_DDOT":"0.0000000000000","INCLINATION":"53.0550","PERIOD":"95.591","CENTER_NAME":"EARTH","NORAD_CAT_ID":"48647","EPOCH":"2022-03-03T18:25:47.390304","RA_OF_ASC_NODE":"226.8933","ELEMENT_SET_NO":"999","TIME_SYSTEM":"UTC","ARG_OF_PERICENTER":"76.0351","SEMIMAJOR_AXIS":"6925.311","OBJECT_ID":"2021-044K","OBJECT_NAME":"STARLINK-2691","MEAN_MOTION_DOT":"0.00001054","ECCENTRICITY":"0.00015160","FILE":"3343255","BSTAR":"0.00008960900000","MEAN_MOTION":"15.06412392","SITE":"AFETR","PERIAPSIS":"546.126","TLE_LINE2":"2 48647  53.0550 226.8933 0001516  76.0351 284.0807 15.06412392 42612","GP_ID":"197769940"},{"RA_OF_ASC_NODE":"226.5960","ELEMENT_SET_NO":"999","TIME_SYSTEM":"UTC","PERIOD":"95.592","CENTER_NAME":"EARTH","NORAD_CAT_ID":"48648","EPOCH":"2022-03-03T19:59:58.252704","APOAPSIS":"548.059","MEAN_ANOMALY":"279.0878","REF_FRAME":"TEME","TLE_LINE1":"1 48648U 21044L   22062.83331311  .00000943  00000-0  82204-4 0  9992","DECAY_DATE":null,"LAUNCH_DATE":"2021-05-26","COUNTRY_CODE":"US","REV_AT_EPOCH":"4262","MEAN_ELEMENT_THEORY":"SGP4","MEAN_MOTION_DDOT":"0.0000000000000","INCLINATION":"53.0554","CLASSIFICATION_TYPE":"U","EPHEMERIS_TYPE":"0","RCS_SIZE":"LARGE","OBJECT_TYPE":"PAYLOAD","MEAN_MOTION":"15.06396296","PERIAPSIS":"546.390","SITE":"AFETR","GP_ID":"197769189","TLE_LINE2":"2 48648  53.0554 226.5960 0001205  81.0247 279.0878 15.06396296 42626","OBJECT_NAME":"STARLINK-2521","MEAN_MOTION_DOT":"0.00000943","ECCENTRICITY":"0.00012050","FILE":"3343255","BSTAR":"0.00008220400000","ARG_OF_PERICENTER":"81.0247","SEMIMAJOR_AXIS":"6925.360","OBJECT_ID":"2021-044L"},{"PERIOD":"95.592","CENTER_NAME":"EARTH","EPOCH":"2022-03-03T19:56:01.175424","NORAD_CAT_ID":"48649","RA_OF_ASC_NODE":"226.5970","ELEMENT_SET_NO":"999","TIME_SYSTEM":"UTC","CLASSIFICATION_TYPE":"U","EPHEMERIS_TYPE":"0","OBJECT_TYPE":"PAYLOAD","RCS_SIZE":"LARGE","APOAPSIS":"548.270","TLE_LINE1":"1 48649U 21044M   22062.83056916  .00001229  00000-0  10136-3 0  9990","DECAY_DATE":null,"REF_FRAME":"TEME","LAUNCH_DATE":"2021-05-26","COUNTRY_CODE":"US","MEAN_ANOMALY":"293.3082","MEAN_ELEMENT_THEORY":"SGP4","REV_AT_EPOCH":"4261","INCLINATION":"53.0548","MEAN_MOTION_DDOT":"0.0000000000000","OBJECT_NAME":"STARLINK-2673","ECCENTRICITY":"0.00015200","MEAN_MOTION_DOT":"0.00001229","BSTAR":"0.00010136000000","FILE":"3343255","MEAN_MOTION":"15.06398674","PERIAPSIS":"546.165","SITE":"AFETR","GP_ID":"197769439","TLE_LINE2":"2 48649  53.0548 226.5970 0001520  66.8067 293.3082 15.06398674 42619","ARG_OF_PERICENTER":"66.8067","SEMIMAJOR_AXIS":"6925.353","OBJECT_ID":"2021-044M"}];
